NORAD_CAT_ID,OBJECT_NAME,OBJECT_TYPE,EPOCH,MEAN_MOTION,ECCENTRICITY,INCLINATION,RA_OF_ASC_NODE,ARG_OF_PERICENTER,MEAN_ANOMALY,BSTAR,MEAN_MOTION_DOT,MEAN_MOTION_DDOT,TLE_LINE0,TLE_LINE1,TLE_LINE2,SEMIMAJOR_AXIS,PERIOD,APOGEE,PERIGEE,DECAYED
52375.0,STARLINK-3785,PAYLOAD,2022-06-21 22:00:00,15.7319122,0.0003146,53.2142,173.7953,14.8351,228.7793,6.4289e-05,8.407e-05,0.0,0 STARLINK-3785,1 52375U 22045AW  22172.91667824  .00008407  00000-0  64289-4 0  9994,2 52375  53.2142 173.7953 0003146  14.8351 228.7793 15.73191220  1305,6727.92,91.534,351.902,347.6690000000001,0.0
52375.0,STARLINK-3785,PAYLOAD,2022-06-22 00:00:02,15.73213871,0.0003165,53.2145,173.38299999999995,16.0313,339.8711,-0.00027903,-0.00039634,0.0,0 STARLINK-3785,1 52375U 22045AW  22173.00002315 -.00039634  00000-0 -27903-3 0  9992,2 52375  53.2145 173.3830 0003165  16.0313 339.8711 15.73213871 10908,6727.856,91.532,351.85,347.591,0.0
52375.0,STARLINK-3785,PAYLOAD,2022-06-22 14:00:01,15.73192639,0.0003449,53.2134,170.4979,18.2842,43.1395,0.00015742,0.00021525,0.0,0 STARLINK-3785,1 52375U 22045AW  22173.58334491  .00021525  00000-0  15742-3 0  9994,2 52375  53.2134 170.4979 0003449  18.2842  43.1395 15.73192639  1309,6727.916,91.534,352.102,347.461,0.0
52375.0,STARLINK-3785,PAYLOAD,2022-06-22 22:00:00,15.73229403,0.0003106,53.2136,168.8468,19.4648,130.8974,-0.00014537,-0.00021005,0.0,0 STARLINK-3785,1 52375U 22045AW  22173.91667824 -.00021005  00000-0 -14537-3 0  9996,2 52375  53.2136 168.8468 0003106  19.4648 130.8974 15.73229403 11052,6727.811,91.531,351.766,347.587,0.0
52375.0,STARLINK-3785,PAYLOAD,2022-06-23 14:00:01,15.73261662,0.0003266,53.2137,165.5493,14.1257,314.1033,-0.00058399,-0.00082031,0.0,0 STARLINK-3785,1 52375U 22045AW  22174.58334491 -.00082031  00000-0 -58399-3 0  9991,2 52375  53.2137 165.5493 0003266  14.1257 314.1033 15.73261662  1303,6727.719,91.53,351.782,347.38699999999994,0.0
52375.0,STARLINK-3785,PAYLOAD,2022-06-23 22:00:00,15.7298216,0.0003078999999999,53.2162,163.8956,20.3356,36.917,0.0018852,0.00270133,0.0,0 STARLINK-3785,1 52375U 22045AW  22174.91667824  .00270133  00000-0  18852-2 0  9996,2 52375  53.2162 163.8956 0003079  20.3356  36.9170 15.72982160 11211,6728.516,91.546,352.45300000000015,348.31,0.0
52375.0,STARLINK-3785,PAYLOAD,2022-06-24 06:00:02,15.73229469,0.0003297,53.2138,162.2502,13.6952,132.5117,-0.00053372,-0.00074983,0.0,0 STARLINK-3785,1 52375U 22045AW  22175.25002315 -.00074983  00000-0 -53372-3 0  9996,2 52375  53.2138 162.2502 0003297  13.6952 132.5117 15.73229469 11269,6727.811,91.531,351.894,347.458,0.0
52375.0,STARLINK-3785,PAYLOAD,2022-06-24 14:00:01,15.73198629,0.0003226,53.2132,160.6001,12.283,222.7862,-1.3209e-05,-2.477e-05,0.0,0 STARLINK-3785,1 52375U 22045AW  22175.58334491 -.00002477  00000-0 -13209-4 0  9990,2 52375  53.2132 160.6001 0003226  12.2830 222.7862 15.73198629 11319,6727.899,91.533,351.935,347.594,0.0
52375.0,STARLINK-3785,PAYLOAD,2022-06-24 22:00:01,15.73220579,0.0003009,53.2134,158.94899999999996,16.0205,308.0393,-6.4129e-05,-9.623e-05,0.0,0 STARLINK-3785,1 52375U 22045AW  22175.91668981 -.00009623  00000-0 -64129-4 0  9998,2 52375  53.2134 158.9490 0003009  16.0205 308.0393 15.73220579  1305,6727.837,91.532,351.726,347.677,0.0
52375.0,STARLINK-3785,PAYLOAD,2022-06-25 14:00:01,15.73218811,0.0003248,53.2136,155.6513,18.641,123.2026,-4.7667000000000005e-06,-1.293e-05,0.0,0 STARLINK-3785,1 52375U 22045AW  22176.58334491 -.00001293  00000-0 -47667-5 0  9992,2 52375  53.2136 155.6513 0003248  18.6410 123.2026 15.73218811  1304,6727.842,91.532,351.892,347.521,0.0
52375.0,STARLINK-3785,PAYLOAD,2022-06-25 22:00:00,15.72981734,0.0003217,53.2163,153.9979,21.7735,209.0669,0.0021066,0.00303128,0.0,0 STARLINK-3785,1 52375U 22045AW  22176.91667824  .00303128  00000-0  21066-2 0  9990,2 52375  53.2163 153.9979 0003217  21.7735 209.0669 15.72981734 11523,6728.518,91.546,352.547,348.218,0.0
52375.0,STARLINK-3785,PAYLOAD,2022-06-26 06:00:00,15.73227721,0.0003266,53.2139,152.3527,17.0561,302.6925,-0.00015481,-0.00022325,0.0,0 STARLINK-3785,1 52375U 22045AW  22177.25001157 -.00022325  00000-0 -15481-3 0  9993,2 52375  53.2139 152.3527 0003266  17.0561 302.6925 15.73227721 11577,6727.816,91.532,351.87800000000016,347.4840000000001,0.0
52375.0,STARLINK-3785,PAYLOAD,2022-06-26 14:00:01,15.73214057,0.0003117,53.2134,150.7021,15.4453,33.3419,3.3703e-05,4.113e-05,0.0,0 STARLINK-3785,1 52375U 22045AW  22177.58335648  .00004113  00000-0  33703-4 0  9995,2 52375  53.2134 150.7021 0003117  15.4453  33.3419 15.73214057  1304,6727.855,91.532,351.81699999999995,347.62300000000016,0.0
52375.0,STARLINK-3785,PAYLOAD,2022-06-26 20:00:01,15.73206758,0.0002973,53.2136,149.4637,17.006,8.4204,0.00029518,0.00041026,0.0,0 STARLINK-3785,1 52375U 22045AW  22177.83334491  .00041026  00000-0  29518-3 0  9990,2 52375  53.2136 149.4637 0002973  17.0060   8.4204 15.73206758 11670,6727.876,91.533,351.741,347.741,0.0
52375.0,STARLINK-3785,PAYLOAD,2022-06-26 22:00:00,15.73245444,0.0002941,53.2138,149.0515,18.8367,118.8153,-0.00021904,-0.00031317,0.0,0 STARLINK-3785,1 52375U 22045AW  22177.91667824 -.00031317  00000-0 -21904-3 0  9993,2 52375  53.2138 149.0515 0002941  18.8367 118.8153 15.73245444  1300,6727.766,91.531,351.6090000000001,347.652,0.0
52375.0,STARLINK-3785,PAYLOAD,2022-06-27 06:00:00,15.73198406,0.0003213,53.2139,147.4041,17.7713,208.8585,-0.00047484,-0.00066754,0.0,0 STARLINK-3785,1 52375U 22045AW  22178.25001157 -.00066754  00000-0 -47484-3 0  9996,2 52375  53.2139 147.4041 0003213  17.7713 208.8585 15.73198406 11735,6727.9,91.533,351.926,347.603,0.0
52375.0,STARLINK-3785,PAYLOAD,2022-06-27 14:00:01,15.7316978,0.000307,53.214,145.7533,15.7034,299.8185,3.3561e-05,4.085e-05,0.0,0 STARLINK-3785,1 52375U 22045AW  22178.58334491  .00004085  00000-0  33561-4 0  9991,2 52375  53.2140 145.7533 0003070  15.7034 299.8185 15.73169780  1300,6727.981,91.535,351.912,347.781,0.0
52375.0,STARLINK-3785,PAYLOAD,2022-06-27 22:00:00,15.73202471,0.0002925,53.2145,144.1028,17.0093,27.4061,-0.00030864,-0.00043729,0.0,0 STARLINK-3785,1 52375U 22045AW  22178.91667824 -.00043729  00000-0 -30864-3 0  9999,2 52375  53.2145 144.1028 0002925  17.0093  27.4061 15.73202471 11848,6727.888000000001,91.533,351.721,347.785,0.0
52375.0,STARLINK-3785,PAYLOAD,2022-06-28 14:00:01,15.73180957,0.0003068,53.2143,140.8048,15.3816,206.7955,-5.5187e-05,-8.356e-05,0.0,0 STARLINK-3785,1 52375U 22045AW  22179.58334491 -.00008356  00000-0 -55187-4 0  9997,2 52375  53.2143 140.8048 0003068  15.3816 206.7955 15.73180957  1302,6727.949000000001,91.534,351.879,347.75,0.0
52375.0,STARLINK-3785,PAYLOAD,2022-06-28 22:00:00,15.73195857,0.0002901999999999,53.2146,139.1547,17.8625,293.2161,0.00028475,0.00039529,0.0,0 STARLINK-3785,1 52375U 22045AW  22179.91667824  .00039529  00000-0  28475-3 0  9996,2 52375  53.2146 139.1547 0002902  17.8625 293.2161 15.73195857  1306,6727.906999999997,91.533,351.724,347.82,0.0
52375.0,STARLINK-3785,PAYLOAD,2022-06-29 14:00:01,15.73270639,0.0003011,53.215,135.8563,15.9687,112.9865,-0.00057791,-0.00081217,0.0,0 STARLINK-3785,1 52375U 22045AW  22180.58334491 -.00081217  00000-0 -57791-3 0  9998,2 52375  53.2150 135.8563 0003011  15.9687 112.9865 15.73270639 12101,6727.694,91.529,351.584,347.533,0.0
52375.0,STARLINK-3785,PAYLOAD,2022-06-29 22:00:00,15.73199076,0.0002898999999999,53.2156,134.2059,16.9808,200.956,0.00017904,0.00024582,0.0,0 STARLINK-3785,1 52375U 22045AW  22180.91667824  .00024582  00000-0  17904-3 0  9996,2 52375  53.2156 134.2059 0002899  16.9808 200.9560 15.73199076  1304,6727.898,91.533,351.713,347.81199999999984,0.0
52375.0,STARLINK-3785,PAYLOAD,2022-06-30 14:00:01,15.7308579,0.0003078999999999,53.2171,130.9055,11.9382,23.8898,-0.0029104,-0.00389028,0.0,0 STARLINK-3785,1 52375U 22045AW  22181.58334491 -.00389028  00000-0 -29104-2 0  9996,2 52375  53.2171 130.9055 0003079  11.9382  23.8898 15.73085790  1306,6728.221,91.54,352.157,348.014,0.0
52375.0,STARLINK-3785,PAYLOAD,2022-06-30 22:00:00,15.72819334,0.0002898999999999,53.2176,129.2556,12.3821,112.0884,-0.0056256,-0.00714946,0.0,0 STARLINK-3785,1 52375U 22045AW  22181.91667824 -.00714946  00000-0 -56256-2 0  9991,2 52375  53.2176 129.2556 0002899  12.3821 112.0884 15.72819334  1304,6728.981,91.555,352.796,348.895,0.0
52375.0,STARLINK-3785,PAYLOAD,2022-07-01 14:00:01,15.71801671,0.0002787,53.2175,125.9617,6.0564,294.1241,-0.0059137,-0.00719132,0.0,0 STARLINK-3785,1 52375U 22045AW  22182.58334491 -.00719132  00000-0 -59137-2 0  9999,2 52375  53.2175 125.9617 0002787   6.0564 294.1241 15.71801671  1307,6731.885,91.615,355.626,351.874,0.0
52375.0,STARLINK-3785,PAYLOAD,2022-07-01 22:00:00,15.7129162,0.0002944,53.2177,124.3163,8.636000000000001,18.4804,-0.0060358,-0.00718355,0.0,0 STARLINK-3785,1 52375U 22045AW  22182.91667824 -.00718355  00000-0 -60358-2 0  9998,2 52375  53.2177 124.3163 0002944   8.6360  18.4804 15.71291620  1304,6733.342,91.644,357.189,353.224,0.0
52375.0,STARLINK-3785,PAYLOAD,2022-07-02 14:00:01,15.70269471,0.0004096999999999,53.2176,121.0295,305.9775,253.174,-0.0062703,-0.00715382,0.0,0 STARLINK-3785,1 52375U 22045AW  22183.58334491 -.00715382  00000-0 -62703-2 0  9996,2 52375  53.2176 121.0295 0004097 305.9775 253.1740 15.70269471  1302,6736.263000000001,91.704,360.888,355.36800000000005,0.0
52375.0,STARLINK-3785,PAYLOAD,2022-07-02 22:00:00,15.69752626,0.0003797,53.2177,119.3882,308.6575,335.5935,-0.0062779,-0.00701934,0.0,0 STARLINK-3785,1 52375U 22045AW  22183.91667824 -.00701934  00000-0 -62779-2 0  9993,2 52375  53.2177 119.3882 0003797 308.6575 335.5935 15.69752626  1307,6737.7419999999975,91.734,362.165,357.048,0.0
52375.0,STARLINK-3785,PAYLOAD,2022-07-03 00:00:00,15.69638216,0.0003753,53.2176,118.9786,316.798,78.6267,-0.0065286,-0.00724491,0.0,0 STARLINK-3785,1 52375U 22045AW  22184.00001157 -.00724491  00000-0 -65286-2 0  9994,2 52375  53.2176 118.9786 0003753 316.7980  78.6267 15.69638216 12646,6738.069,91.741,362.463,357.405,0.0
